CARTOSAT-2E             
1 42767U 17036C   26165.14652594  .00004285  00000+0  20662-3 0  9996
2 42767  97.4285 224.9986 0002662 336.2358  23.8753 15.19234418497689
IRIDIUM 113             
1 42803U 17039A   26164.96124090  .00000028  00000+0  30469-5 0  9993
2 42803  86.3967 323.5275 0002289  89.2450 270.9008 14.34217730470722
NORSAT 2                
1 42828U 17042D   26165.20044431  .00009911  00000+0  43781-3 0  9991
2 42828  97.4029 338.6886 0010689  66.6867 293.5493 15.21876862487282
TECHNOSAT               
1 42829U 17042E   26165.12427441  .00003976  00000+0  28376-3 0  9997
2 42829  97.4270 322.8986 0018803 103.8584 256.4737 15.04940858486245
FLYING LAPTOP           
1 42831U 17042G   26165.18591167  .00003083  00000+0  24429-3 0  9997
2 42831  97.4668 320.8343 0019513 131.5307 228.7595 15.01127303486001
WNISAT 1R               
1 42835U 17042L   26165.16017071  .00002252  00000+0  17727-3 0  9996
2 42835  97.4829 321.3905 0010793 157.2629 202.9076 15.01751249486052
LEMUR-2-GREENBERG       
1 42837U 17042N   26165.21176696  .00016050  00000+0  53319-3 0  9991
2 42837  97.3809 345.8505 0008807  24.5489 335.6170 15.31247013487930
LEMUR-2-FURIAUS         
1 42840U 17042R   26165.00727809  .00017604  00000+0  60450-3 0  9990
2 42840  97.3761 343.6098 0008324  78.7756 281.4420 15.30158223487722
CORVUS BC2              
1 42846U 17042X   26165.20549145  .00003850  00000+0  26571-3 0  9997
2 42846  97.4052 326.6713 0014195 119.8505 240.4136 15.06276912486614
CORVUS BC1              
1 42847U 17042Y   26165.20044068  .00003877  00000+0  26634-3 0  9991
2 42847  97.4087 327.4785 0013200  98.3822 261.8902 15.06447584486646
VRSS-2                  
1 42954U 17060A   26165.21470171  .00001195  00000+0  15957-3 0  9996
2 42954  97.6517 203.0754 0018549 107.6910 252.6330 14.81191627468013
MOHAMMED VI-A           
1 43005U 17070A   26165.16248759  .00000816  00000+0  12281-3 0  9990
2 43005  97.9564 237.5350 0001381  73.7743 286.3619 14.77066106463537
FENGYUN 3D              
1 43010U 17072A   26165.18741749  .00000474  00000+0  24572-3 0  9993
2 43010  99.0117 139.5552 0002596  66.5982 293.5466 14.19740500444564
NOAA 20 (JPSS-1)        
1 43013U 17073A   26165.11139211  .00000026  00000+0  33168-4 0  9990
2 43013  98.7773 104.6013 0000289  72.0377 288.0831 14.19511186444036
MAKERSAT 0              
1 43016U 17073D   26164.91423524  .00018871  00000+0  51447-3 0  9999
2 43016  97.4636  47.4083 0105274 284.8512  74.1088 15.31998671465964
RADFXSAT (FOX-1B)       
1 43017U 17073E   26165.16518689  .00008607  00000+0  37613-3 0  9990
2 43017  97.4711  32.4423 0150020 339.7576  19.7744 15.12676252464937
JILIN-1 04              
1 43022U 17074A   26165.16680765  .00013525  00000+0  31518-3 0  9995
2 43022  97.4860 274.6985 0003880 188.7482 171.3698 15.42375909473807
JILIN-1 05              
1 43023U 17074B   26165.18550646  .00008433  00000+0  26012-3 0  9997
2 43023  97.4866 271.2987 0004120 226.4116 133.6785 15.33833878473544
JILIN-1 06              
1 43024U 17074C   26165.15674042  .00005834  00000+0  18170-3 0  9990
2 43024  97.4793 268.2831 0005485 243.6405 116.4275 15.33662656473373
IRIDIUM 116             
1 43072U 17083C   26165.14517498  .00000054  00000+0  12386-4 0  9996
2 43072  86.3960 323.2734 0001923  97.2780 262.8634 14.34217938443736
IRIDIUM 130             
1 43073U 17083D   26165.18323058 -.00000024  00000+0 -15763-4 0  9999
2 43073  86.3967 323.5326 0001837  90.8150 269.3257 14.34217234443684
LKW-2                   
1 43080U 17084A   26165.20945057  .00005652  00000+0  22047-3 0  9992
2 43080  97.1195 205.1441 0000747 181.8155 178.3082 15.26304052471237
SUPERVIEW-1 03          
1 43099U 18002A   26165.17526627  .00017411  00000+0  43329-3 0  9999
2 43099  97.3140 250.0170 0046986 190.3008 169.7280 15.39166779467903
CARTOSAT-2F             
1 43111U 18004A   26165.17862706  .00005833  00000+0  28042-3 0  9997
2 43111  97.4794 224.8423 0000551 240.1534 119.9646 15.19195896466878
LKW-3                   
1 43146U 18006A   26165.18597351  .00008982  00000+0  26537-3 0  9994
2 43146  97.6598 325.6428 0002246 337.0671  23.0471 15.35191568468251
ASNARO-2                
1 43152U 18007A   26165.16258881  .00009503  00000+0  41401-3 0  9999
2 43152  97.3965 172.1370 0001704  90.1823 269.9608 15.22410935466954
JILIN-1 07              
1 43159U 18008E   26165.22409242  .00008585  00000+0  25732-3 0  9991
2 43159  97.1767 185.2315 0010056  74.1634 286.0718 15.34678336464544
JILIN-1 08              
1 43160U 18008F   26165.15714192  .00006264  00000+0  19453-3 0  9993
2 43160  97.1800 184.4861 0008080  88.4238 271.7931 15.33680956464484
